stk.v.11.0

# WrittenBy    STK_v11.6.0

BEGIN Ephemeris

    NumberOfEphemerisPoints		 134

    ScenarioEpoch		 9 Jul 2019 16:00:00.000000

# Epoch in JDate format: 2458674.16666666666667
# Epoch in YYDDD format:   19190.66666666666667


    InterpolationMethod		 Lagrange

    InterpolationSamplesM1		 7

    CentralBody		 Earth

    CoordinateSystem		 ICRF

    BEGIN SegmentBoundaryTimes

        -6.9120000000000000e+05
        -6.8273271127825498e+05

    END SegmentBoundaryTimes

# Time of first point: 1 Jul 2019 16:00:00.000000000 UTCG = 2458666.16666666666667 JDate = 19182.66666666666667 YYDDD

    EphemerisTimePosVel		

-6.8358353700000001e+05 -3.7720871578459083e+06 -7.0622788162858679e+05  5.6990024524119077e+06 -6.3634835451480349e+03  5.0064178312864505e+02 -4.1498656927659140e+03
-6.8351369600000000e+05 -4.2048126133926576e+06 -6.6918826075962698e+05  5.3923951501223855e+06 -6.0220478001957035e+03  5.5951868035621908e+02 -4.6259408472786863e+03
-6.8344383799999999e+05 -4.6125127991509344e+06 -6.2813993954230309e+05  5.0533954133632369e+06 -5.6443556750015505e+03  6.1509308485059785e+02 -5.0746401310798210e+03
-6.8337396900000004e+05 -4.9926860615434702e+06 -5.8332763571639918e+05  4.6840299473885307e+06 -5.2326382265855464e+03  6.6702330981850241e+02 -5.4931911222844783e+03
-6.8330408499999996e+05 -5.3430484049170390e+06 -5.3501313301637128e+05  4.2864629698991580e+06 -4.7892856738136234e+03  7.1499577905893818e+02 -5.8790541020587871e+03
-6.8323418099999998e+05 -5.6614875057686968e+06 -4.8347821904559102e+05  3.8630204380788160e+06 -4.3168762673672300e+03  7.5871870157392948e+02 -6.2298728150360166e+03
-6.8316423999999999e+05 -5.9461148786776075e+06 -4.2901427426584857e+05  3.4161044217238426e+06 -3.8180819280061069e+03  7.9792973457773826e+02 -6.5435341389554815e+03
-6.8309426500000001e+05 -6.1951406847693203e+06 -3.7194530383611959e+05  2.9483820765124680e+06 -3.2958789789480898e+03  8.3237927358688285e+02 -6.8180327315201212e+03
-6.8302438300000003e+05 -6.4066498113820478e+06 -3.1271945587390289e+05  2.4635335776630929e+06 -2.7543825450761383e+03  8.6179890212168925e+02 -7.0512257232811780e+03
-6.8295456900000002e+05 -6.5795655220380221e+06 -2.5167737988402747e+05  1.9643539194111840e+06 -2.1967264358258999e+03  8.8603467495793211e+02 -7.2418954404386068e+03
-6.8288483900000004e+05 -6.7129278376589511e+06 -1.8920365795268299e+05  1.4539944523941516e+06 -1.6264501627403786e+03  9.0494782812541644e+02 -7.3889548305032904e+03
-6.8281521100000001e+05 -6.8060547171908375e+06 -1.2569274864801178e+05  9.3568359243106539e+05 -1.0471875744728386e+03  9.1843785982468114e+02 -7.4916280024994676e+03
-6.8274564700000000e+05 -6.8585787321357625e+06 -6.1492051211853606e+04  4.1226288739137514e+05 -4.6214575752749852e+02  9.2644866878512539e+02 -7.5494935429474936e+03
-6.8273271127825498e+05 -6.8638506973210340e+06 -4.9501854567913440e+04  3.1456555191313045e+05 -3.5294190846877893e+02  9.2733129996628668e+02 -7.5552925023637681e+03

-6.8273271127825498e+05 -6.8638506973210340e+06 -4.9501854567913440e+04  3.1456555191313045e+05 -3.5294190846877893e+02  9.2733129996628668e+02 -7.5552925023637681e+03
-6.8267271127825498e+05 -6.8698157606550846e+06  6.2064732916278153e+03 -1.3911481334908673e+05  1.5418079837623850e+02  9.2892744083680975e+02 -7.5617882565701711e+03
-6.8260318527825503e+05 -6.8386878209797293e+06  7.0708521094950134e+04 -6.6391858180007664e+05  7.4080291051374684e+02  9.2563269665043561e+02 -7.5273272761246972e+03
-6.8253368227825500e+05 -6.7669393998799808e+06  1.3476892283964134e+05 -1.1845934806883701e+06  1.3227755234231781e+03  9.1683960771978082e+02 -7.4480364393460113e+03
-6.8246418227825500e+05 -6.6550040496117538e+06  1.9802586749117298e+05 -1.6981908126533323e+06  1.8967714985372565e+03  9.0260318409448917e+02 -7.3244082524567593e+03
-6.8239466927825497e+05 -6.5035202197805773e+06  2.6011814966778623e+05 -2.2017695287908651e+06  2.4594769395776430e+03  8.8300707411544192e+02 -7.1571676378228622e+03
-6.8232514627825492e+05 -6.3133850040658573e+06  3.2067402433211158e+05 -2.6923062187635577e+06  3.0074917309280158e+03  8.5817021800026191e+02 -6.9473296145850854e+03
-6.8225558427825500e+05 -6.0856208680197829e+06  3.7935769956335431e+05 -3.1670720489794249e+06  3.5377514940328592e+03  8.2822920550378956e+02 -6.6960510489112112e+03
-6.8218595827825496e+05 -5.8214322097354224e+06  4.3583751654391998e+05 -3.6233746032253271e+06  4.0472396854667600e+03  7.9334519041700651e+02 -6.4046915710551630e+03
-6.8213271127825498e+05 -5.5959218782541864e+06  4.7729763628529100e+05 -3.9578829567682105e+06  4.4206298469639378e+03  7.6347994577096142e+02 -6.1560686858387780e+03


END Ephemeris
